NORAD_CAT_ID,OBJECT_NAME,OBJECT_TYPE,EPOCH,MEAN_MOTION,ECCENTRICITY,INCLINATION,RA_OF_ASC_NODE,ARG_OF_PERICENTER,MEAN_ANOMALY,BSTAR,MEAN_MOTION_DOT,MEAN_MOTION_DDOT,TLE_LINE0,TLE_LINE1,TLE_LINE2,SEMIMAJOR_AXIS,PERIOD,APOGEE,PERIGEE,DECAYED
55921.0,STARLINK-5861,PAYLOAD,2023-03-22 18:00:00,15.94892622,0.0039234,69.9998,167.7493,162.7511,297.1959,-0.002337,-0.00975877,0.00029755,0 STARLINK-5861,1 55921U 23037H   23081.75001157 -.00975877  29755-3 -23370-2 0  9990,2 55921  69.9998 167.7493 0039234 162.7511 297.1959 15.94892622  1309,6666.751,90.288,314.772,262.459,0.0
55921.0,STARLINK-5861,PAYLOAD,2023-03-22 22:00:00,15.94599231,0.0036479,69.9997,167.2633,162.7841,173.6962,-0.0025662,-0.01042758,0.00033528,0 STARLINK-5861,1 55921U 23037H   23081.91667824 -.01042758  33528-3 -25662-2 0  9990,2 55921  69.9997 167.2633 0036479 162.7841 173.6962 15.94599231  1305,6667.568,90.305,313.756,265.111,0.0
55921.0,STARLINK-5861,PAYLOAD,2023-03-23 06:00:00,15.93919971,0.0032443,70.0001,166.2915,163.7345,285.2585,-0.0025553,-0.00987229,0.00030093,0 STARLINK-5861,1 55921U 23037H   23082.25001157 -.00987229  30093-3 -25553-2 0  9992,2 55921  70.0001 166.2915 0032443 163.7345 285.2585 15.93919971  1377,6669.462,90.343,312.965,269.69,0.0
55921.0,STARLINK-5861,PAYLOAD,2023-03-23 14:00:01,15.93269114,0.0029635,70.0001,165.3216,164.848,35.9316,-0.0026787,-0.00990783,0.00030092,0 STARLINK-5861,1 55921U 23037H   23082.58335648 -.00990783  30092-3 -26787-2 0  9991,2 55921  70.0001 165.3216 0029635 164.8480  35.9316 15.93269114  1304,6671.279,90.38,312.914,273.373,0.0
55921.0,STARLINK-5861,PAYLOAD,2023-03-24 17:00:11,15.9105692,0.0018048,69.9999,162.0523,174.6506,353.0123,-0.0030255,-0.0097095,0.00028348,0 STARLINK-5861,1 55921U 23037H   23083.70846065 -.00970950  28348-3 -30255-2 0  9996,2 55921  69.9999 162.0523 0018048 174.6506 353.0123 15.91056920  1606,6677.461,90.506,311.378,287.275,0.0
55921.0,STARLINK-5861,PAYLOAD,2023-03-24 22:00:01,15.90690541,0.0015393,69.9999,161.4482,178.9432,100.8861,-0.0033543,-0.01051508,0.00032732,0 STARLINK-5861,1 55921U 23037H   23083.91668981 -.01051508  32732-3 -33543-2 0  9993,2 55921  69.9999 161.4482 0015393 178.9432 100.8861 15.90690541  1304,6678.486,90.527,310.632,290.071,0.0
55921.0,STARLINK-5861,PAYLOAD,2023-03-25 06:00:00,15.90024325,0.0012324,70.0,160.482,189.1985,198.3794,-0.0033948,-0.01025,0.00031019,0 STARLINK-5861,1 55921U 23037H   23084.25001157 -.01025000  31019-3 -33948-2 0  9991,2 55921  70.0000 160.4820 0012324 189.1985 198.3794 15.90024325  1693,6680.352,90.565,310.45,293.984,0.0
55921.0,STARLINK-5861,PAYLOAD,2023-03-25 14:00:01,15.89349058,0.0010397,70.0001,159.518,198.4803,296.133,-0.0033618,-0.00979491,0.00028332,0 STARLINK-5861,1 55921U 23037H   23084.58334491 -.00979491  28332-3 -33618-2 0  9996,2 55921  70.0001 159.5180 0010397 198.4803 296.1330 15.89349058  1742,6682.244,90.603,311.056,297.161,0.0
55921.0,STARLINK-5861,PAYLOAD,2023-03-25 22:00:00,15.88719554,0.0008624,70.0,158.5533,217.7196,23.1305,-0.003636,-0.01024706,0.00030613,0 STARLINK-5861,1 55921U 23037H   23084.91667824 -.01024706  30613-3 -36360-2 0  9995,2 55921  70.0000 158.5533 0008624 217.7196  23.1305 15.88719554  1798,6684.009,90.639,311.638,300.11,0.0
55921.0,STARLINK-5861,PAYLOAD,2023-03-26 06:00:00,15.88073898,0.0008497,69.9999,157.5908,239.3366,106.9741,-0.0038112,-0.01040009,0.0003127,0 STARLINK-5861,1 55921U 23037H   23085.25001157 -.01040009  31270-3 -38112-2 0  9995,2 55921  69.9999 157.5908 0008497 239.3366 106.9741 15.88073898  1859,6685.82,90.676,313.366,302.004,0.0
55921.0,STARLINK-5861,PAYLOAD,2023-03-26 22:00:01,15.86747322,0.0009043,69.9998,155.6672,267.7152,287.2485,-0.0039003,-0.00906768,0.0,0 STARLINK-5861,1 55921U 23037H   23085.91668981 -.00906768  00000-0 -39003-2 0  9998,2 55921  69.9998 155.6672 0009043 267.7152 287.2485 15.86747322  1958,6689.546,90.752,317.461,305.362,0.0
55921.0,STARLINK-5861,PAYLOAD,2023-03-27 14:00:01,15.85454305,0.0007609,70.0001,153.7477,271.6719,128.6696,-0.004241,-0.00922477,0.0,0 STARLINK-5861,1 55921U 23037H   23086.58334491 -.00922477  00000-0 -42410-2 0  9999,2 55921  70.0001 153.7477 0007609 271.6719 128.6696 15.85454305  1303,6693.183,90.826,320.141,309.955,0.0
55921.0,STARLINK-5861,PAYLOAD,2023-03-27 22:00:00,15.84811841,0.0003945,70.0002,152.7889,277.1914,224.6967,-0.0044493,-0.00934032,0.0,0 STARLINK-5861,1 55921U 23037H   23086.91667824 -.00934032  00000-0 -44493-2 0  9998,2 55921  70.0002 152.7889 0003945 277.1914 224.6967 15.84811841  2116,6694.992,90.863,319.498,314.215,0.0
55921.0,STARLINK-5861,PAYLOAD,2023-03-28 14:00:01,15.83487999,0.0003686,70.0004,150.8748,268.8397,73.812,-0.0045799,-0.00905233,0.0,0 STARLINK-5861,1 55921U 23037H   23087.58334491 -.00905233  00000-0 -45799-2 0  9994,2 55921  70.0004 150.8748 0003686 268.8397  73.8120 15.83487999  1302,6698.723,90.938,323.057,318.118,0.0
55921.0,STARLINK-5861,PAYLOAD,2023-03-28 22:00:00,15.82845603,0.0003733,69.9999,149.9189,281.1449,160.7078,-0.0048084,-0.00920311,0.0,0 STARLINK-5861,1 55921U 23037H   23087.91667824 -.00920311  00000-0 -48084-2 0  9994,2 55921  69.9999 149.9189 0003733 281.1449 160.7078 15.82845603  1306,6700.535,90.975,324.901,319.899,0.0
55921.0,STARLINK-5861,PAYLOAD,2023-03-29 02:00:01,15.82510439,0.0003701,70.0001,149.4418,278.3488,32.8163,-0.0048093,-0.0090739,0.0,0 STARLINK-5861,1 55921U 23037H   23088.08334491 -.00907390  00000-0 -48093-2 0  9996,2 55921  70.0001 149.4418 0003701 278.3488  32.8163 15.82510439  2300,6701.481,90.995,325.826,320.866,0.0
55921.0,STARLINK-5861,PAYLOAD,2023-03-29 14:00:01,15.81532426,0.0003575,70.0003,148.0104,270.1453,7.7724,-0.0050307,-0.00906662,0.0,0 STARLINK-5861,1 55921U 23037H   23088.58334491 -.00906662  00000-0 -50307-2 0  9993,2 55921  70.0003 148.0104 0003575 270.1453   7.7724 15.81532426  1302,6704.243,91.051,328.505,323.712,0.0
55921.0,STARLINK-5861,PAYLOAD,2023-03-29 22:00:00,15.80877829,0.0003655,70.0,147.0575,269.0048,105.772,-0.0051718,-0.0090445,0.0,0 STARLINK-5861,1 55921U 23037H   23088.91667824 -.00904450  00000-0 -51718-2 0  9999,2 55921  70.0000 147.0575 0003655 269.0048 105.7720 15.80877829  1309,6706.094,91.089,330.41,325.508,0.0
55921.0,STARLINK-5861,PAYLOAD,2023-03-30 00:00:00,15.80713598,0.0003522,69.9999,146.8193,269.3879,219.4811,-0.005191,-0.00901206,0.0,0 STARLINK-5861,1 55921U 23037H   23089.00001157 -.00901206  00000-0 -51910-2 0  9991,2 55921  69.9999 146.8193 0003522 269.3879 219.4811 15.80713598  2446,6706.558,91.098,330.786,326.061,0.0
55921.0,STARLINK-5861,PAYLOAD,2023-03-30 22:00:00,15.78922509,0.0003599,70.0001,144.2041,272.2334,28.4218,-0.0056717,-0.00906547,0.0,0 STARLINK-5861,1 55921U 23037H   23089.91667824 -.00906547  00000-0 -56717-2 0  9993,2 55921  70.0001 144.2041 0003599 272.2334  28.4218 15.78922509  1304,6711.629,91.201,335.91,331.079,0.0
55921.0,STARLINK-5861,PAYLOAD,2023-03-31 22:00:00,15.76977904,0.0003594,70.0001,141.359,282.5126,296.9753,-0.0063133,-0.00922768,0.0,0 STARLINK-5861,1 55921U 23037H   23090.91667824 -.00922768  00000-0 -63133-2 0  9998,2 55921  70.0001 141.3590 0003594 282.5126 296.9753 15.76977904  2741,6717.146,91.314,341.425,336.597,0.0
55921.0,STARLINK-5861,PAYLOAD,2023-04-01 14:00:01,15.75660112,0.0003668,70.0,139.4669,277.0512,124.4224,-0.0065251,-0.00901932,0.0,0 STARLINK-5861,1 55921U 23037H   23091.58334491 -.00901932  00000-0 -65251-2 0  9996,2 55921  70.0000 139.4669 0003668 277.0512 124.4224 15.75660112  1303,6720.89,91.39,345.221,340.29,0.0
55921.0,STARLINK-5861,PAYLOAD,2023-04-01 22:00:00,15.75007133,0.0003605,70.0002,138.5219,283.5449,207.7461,-0.0067075,-0.00901022,0.0,0 STARLINK-5861,1 55921U 23037H   23091.91667824 -.00901022  00000-0 -67075-2 0  9998,2 55921  70.0002 138.5219 0003605 283.5449 207.7461 15.75007133  1304,6722.748,91.428,347.036,342.189,0.0
55921.0,STARLINK-5861,PAYLOAD,2023-04-02 08:00:01,15.74194248,0.0003736,70.0002,137.3425,282.6081,49.8533,-0.0069884,-0.00905644,0.0,0 STARLINK-5861,1 55921U 23037H   23092.33334491 -.00905644  00000-0 -69884-2 0  9990,2 55921  70.0002 137.3425 0003736 282.6081  49.8533 15.74194248  2979,6725.062,91.475,349.44,344.415,0.0
55921.0,STARLINK-5861,PAYLOAD,2023-04-02 14:00:01,15.73703275,0.0003639,70.0,136.6357,276.7884,31.7891,-0.0071011,-0.00901307,0.0,0 STARLINK-5861,1 55921U 23037H   23092.58334491 -.00901307  00000-0 -71011-2 0  9994,2 55921  70.0000 136.6357 0003639 276.7884  31.7891 15.73703275  1308,6726.461,91.504,350.773,345.878,0.0
55921.0,STARLINK-5861,PAYLOAD,2023-04-02 22:00:00,15.73041327,0.0003363,69.9964,135.6899,267.7238,128.3188,-0.0070828,-0.00876234,0.0,0 STARLINK-5861,1 55921U 23037H   23092.91667824 -.00876234  00000-0 -70828-2 0  9995,2 55921  69.9964 135.6899 0003363 267.7238 128.3188 15.73041327  1306,6728.348,91.542,352.475,347.95,0.0
55921.0,STARLINK-5861,PAYLOAD,2023-04-03 06:00:00,15.72415203,0.000339,69.9965,134.7486,270.37,212.3624,-0.0078393,-0.00937195,0.0,0 STARLINK-5861,1 55921U 23037H   23093.25001157 -.00937195  00000-0 -78393-2 0  9993,2 55921  69.9965 134.7486 0003390 270.3700 212.3624 15.72415203  3110,6730.134,91.579,354.28,349.717,0.0
55921.0,STARLINK-5861,PAYLOAD,2023-04-03 14:00:01,15.71746828,0.0003378,69.9961,133.8082,273.6871,294.9512,-0.0076907,-0.00897924,0.0,0 STARLINK-5861,1 55921U 23037H   23093.58334491 -.00897924  00000-0 -76907-2 0  9993,2 55921  69.9961 133.8082 0003378 273.6871 294.9512 15.71746828  1309,6732.041,91.618,356.181,351.632,0.0
55921.0,STARLINK-5861,PAYLOAD,2023-04-03 22:00:00,15.71054151,0.0003519,69.9962,132.8688,266.6056,27.1703,-0.007315,-0.00835739,0.0,0 STARLINK-5861,1 55921U 23037H   23093.91667824 -.00835739  00000-0 -73150-2 0  9992,2 55921  69.9962 132.8688 0003519 266.6056  27.1703 15.71054151  3227,6734.02,91.658,358.255,353.515,0.0
